ASTRA 1KR               
1 29055U 06012A   26188.16572670  .00000134  00000+0  00000+0 0  9995
2 29055   0.5221  83.2153 0003428  18.8059 261.7744  1.00272824 45896
GALAXY 16 (G-16)        
1 29236U 06023A   26188.13612595 -.00000112  00000+0  00000+0 0  9993
2 29236   0.0303 133.0339 0002525 337.1474 124.9275  1.00270774 73171
EUTELSAT 33F            
1 29270U 06032A   26188.16017222  .00000170  00000+0  00000+0 0  9993
2 29270   1.7099  82.0287 0003463  25.7992 268.0711  1.00274542 47501
JCSAT-3A                
1 29272U 06033A   26188.02783977 -.00000330  00000+0  00000+0 0  9997
2 29272   0.0345 283.6944 0002570 195.4077 303.9221  1.00272422 47932
KOREASAT 5 (MUGUNGWHA 5)
1 29349U 06034A   26188.16502920 -.00000344  00000+0  00000+0 0  9990
2 29349   1.8334  82.7526 0001832  68.6390 306.2168  1.00271215 41521
DIRECTV 9S              
1 29494U 06043A   26188.12502344 -.00000100  00000+0  00000+0 0  9997
2 29494   2.4689  80.6672 0005167  28.5053 119.7356  1.00271232 51589
OPTUS D1                
1 29495U 06043B   26187.89000347 -.00000170  00000+0  00000+0 0  9994
2 29495   3.0822  79.4200 0003529  24.0889 293.7307  1.00271770 72317
BADR-4                  
1 29526U 06051A   26188.16017222  .00000170  00000+0  00000+0 0  9998
2 29526   2.0531  80.9105 0005044  25.6958 270.6202  1.00272799 51460
WILDBLUE-1              
1 29643U 06054A   26188.12303008 -.00000036  00000+0  00000+0 0  9999
2 29643   2.8512  80.2377 0001390  29.5878 108.3500  1.00271935 53994
SKYNET 5A               
1 30794U 07007B   26188.07961659 -.00000259  00000+0  00000+0 0  9990
2 30794   5.3498  73.4994 0003615  36.0614 299.3673  1.00272286 70896
ANIK F3                 
1 31102U 07009A   26188.05028653  .00000014  00000+0  00000+0 0  9990
2 31102   1.2456  83.6260 0002630  26.7590  74.0242  1.00271600 46761
ASTRA 1L                
1 31306U 07016A   26188.18780806 -.00000170  00000+0  00000+0 0  9997
2 31306   1.3701  81.4273 0005435  27.2380 219.6037  1.00270338 45181
GALAXY 17 (G-17)        
1 31307U 07016B   26188.12823012 -.00000193  00000+0  00000+0 0  9994
2 31307   3.0188  79.6528 0003730  25.5148 141.0714  1.00272407 70009
INTELSAT 11 (IS-11)     
1 32253U 07044B   26188.15251458  .00000047  00000+0  00000+0 0  9995
2 32253   3.6140  78.4311 0003802  95.5207 204.0213  0.99049333 68642
WGS F1 (USA 195)        
1 32258U 07046A   26187.49504132 -.00000252  00000+0  00000+0 0  9997
2 32258   0.0183  77.0681 0000585 128.8901 214.2607  1.00274519 52525
SKYNET 5B               
1 32294U 07056B   26187.93616890  .00000152  00000+0  00000+0 0  9990
2 32294   5.3010  73.2693 0003712  32.7961 180.9363  1.00270787 68390
ASTRA 4A                
1 32299U 07057A   26188.14601455  .00000048  00000+0  00000+0 0  9995
2 32299   0.0442 283.8112 0002540 190.6449 228.0495  1.00273847 51846
HORIZONS-2              
1 32388U 07063B   26188.19776697 -.00000240  00000+0  00000+0 0  9992
2 32388   2.6504  80.3851 0003807  13.2405 188.9469  1.00272330 68019
THURAYA-3               
1 32404U 08001A   26188.08635720  .00000022  00000+0  00000+0 0  9990
2 32404   6.0210  35.8077 0002096  76.0926 267.9525  1.00266478 67688
THOR 5                  
1 32487U 08006A   26188.17655957  .00000006  00000+0  00000+0 0  9992
2 32487   0.0559 248.0818 0002486 226.9694 232.9172  1.00272623 67512
AMC-14                  
1 32708U 08011A   26188.02941772 -.00000134  00000+0  00000+0 0  9994
2 32708  24.0333  20.2805 0040163   7.9613 341.7767  1.00420335 68360
DIRECTV 11              
1 32729U 08013A   26187.62633208 -.00000111  00000+0  00000+0 0  9991
2 32729   0.0429 214.4667 0000241 227.3670 329.0652  1.00269705 45785
ICO G1                  
1 32763U 08016A   26187.12860781 -.00000160  00000+0  00000+0 0  9999
2 32763   5.5325  36.0865 0002016  56.9850 144.4776  1.00270218 66739
VINASAT-1               
1 32767U 08018A   26187.60084712 -.00000314  00000+0  00000+0 0  9991
2 32767   0.0250 302.8791 0001411 177.8875 152.0614  1.00270915 66785
STAR ONE C2             
1 32768U 08018B   26188.06092247 -.00000262  00000+0  00000+0 0  9997
2 32768   1.2881  82.2875 0002808  38.1660 121.5116  1.00271171 66854
AMOS-3                  
1 32794U 08022A   26188.15572126  .00000071  00000+0  00000+0 0  9997
2 32794   0.5036  85.9553 0002876  78.3043 230.9417  1.00485891 82534
GALAXY 18 (G-18)        
1 32951U 08024A   26188.04941985  .00000040  00000+0  00000+0 0  9991
2 32951   0.0135 302.9731 0002927 172.7228  64.1212  1.00272603 46057
ZHONGXING-9             
1 33051U 08028A   26188.16326131 -.00000234  00000+0  00000+0 0  9996
2 33051   0.8167  85.1139 0003754   9.5092 341.6661  1.00272804 66235
SKYNET 5C               
1 33055U 08030A   26188.18239479 -.00000127  00000+0  00000+0 0  9994
2 33055   3.8368  76.8055 0004298  40.1042 216.0975  1.00270258 66154
TURKSAT 3A              
1 33056U 08030B   26187.93946227  .00000161  00000+0  00000+0 0  9990
2 33056   0.0565  79.5546 0004956   6.9870 218.5746  1.00273184 52551
ECHOSTAR 11             
1 33207U 08035A   26188.12329008 -.00000043  00000+0  00000+0 0  9997
2 33207   1.0534  83.9666 0002295  19.5838 116.1364  1.00271921 51416
SUPERBIRD-C2            
1 33274U 08038A   26188.02939977 -.00000292  00000+0  00000+0 0  9991
2 33274   2.4089  81.0224 0006256  34.5215 316.0444  1.00272888105925
INMARSAT 4-F3           
1 33278U 08039A   26188.12563009 -.00000128  00000+0  00000+0 0  9994
2 33278   4.3100  31.6827 0002725  79.2821 121.3486  1.00271168 46747
NIMIQ 4                 
1 33373U 08044A   26188.13860226 -.00000205  00000+0  00000+0 0  9994
2 33373   0.0173  42.1902 0001915  54.1673 156.6332  1.00270012 65181
GALAXY 19 (G-19)        
1 33376U 08045A   26188.18615492 -.00000124  00000+0  00000+0 0  9996
2 33376   0.0584 254.0946 0002809 235.1919 125.8776  1.00271725 65103
ASTRA 1M                
1 33436U 08057A   26188.16572670  .00000136  00000+0  00000+0 0  9996
2 33436   0.3445  82.7272 0004885  37.3910 244.0693  1.00273059 45939
EUTELSAT HOTBIRD 13C    
1 33459U 08065A   26188.13509449 -.00000269  00000+0  00000+0 0  9999
2 33459   2.9981  78.9596 0003204  30.6793 173.7659  1.00268606 47543
EXPRESS-AM44            
1 33595U 09007A   26188.14289453 -.00000076  00000+0  00000+0 0  9994
2 33595   3.5116  78.1581 0004097  20.8167 226.5695  1.00271676 52481
NSS-9                   
1 33749U 09008A   26188.11000939  .00000086  00000+0  00000+0 0  9993
2 33749   1.3100  82.4702 0002093  18.6412  46.6601  1.00273217 63726
TELSTAR 11N             
1 34111U 09009A   26188.19350480 -.00000236  00000+0  00000+0 0  9993
2 34111   0.0230  74.8085 0002438  32.3598 210.1075  1.00270882 46448
WGS F2 (USA 204)        
1 34713U 09017A   26187.94258227  .00000083  00000+0  00000+0 0  9997
2 34713   0.0191  29.1728 0000500 166.9616 125.6111  1.00270023 45810
SES-7 (PROTOSTAR 2)     
1 34941U 09027A   26188.16502920 -.00000330  00000+0  00000+0 0  9994
2 34941   0.0348  68.4448 0000274 145.4772 238.8622  1.00269517 62836
MEASAT-3A               
1 35362U 09032A   26188.10533729 -.00000095  00000+0  00000+0 0  9991
2 35362   0.0210   6.5736 0002934  93.2930  23.1373  1.00270985  8239
GOES 14                 
1 35491U 09033A   26187.95698301 -.00000333  00000+0  00000+0 0  9990
2 35491   1.7375  82.8079 0002052  33.7959 282.9913  1.00102736  6781
FM-5                    
1 35493U 09034A   26187.77146750 -.00000185  00000+0  00000+0 0  9994
2 35493   0.0414 265.3083 0001165  77.7507 133.2586  1.00271114 46845
TERRESTAR-1             
1 35496U 09035A   26187.62407875 -.00000044  00000+0  00000+0 0  9994
2 35496   5.1918  48.7846 0002565  47.8200 301.6536  1.00271111 62320
ASIASAT 5               
1 35696U 09042A   26188.07961659 -.00000292  00000+0  00000+0 0  9994
2 35696   0.0342 270.9576 0001673 176.8291 326.4177  1.00268538 61906
JCSAT-12 (JCSAT-RA)     
1 35755U 09044A   26188.02861977 -.00000313  00000+0  00000+0 0  9993
2 35755   0.0491 272.7948 0001147 272.3097 242.2396  1.00272619 61804
OPTUS D3                
1 35756U 09044B   26187.63035505 -.00000131  00000+0  00000+0 0  9998
2 35756   0.8863 268.3295 0003155 204.7841 194.5606  1.00269399 61768
NIMIQ 5                 
1 35873U 09050A   26188.13065677 -.00000242  00000+0  00000+0 0  9997
2 35873   0.0154   2.0022 0002722 106.7764 150.6635  1.00270942 61545
AMAZONAS 2              
1 35942U 09054A   26188.13074345 -.00000245  00000+0  00000+0 0  9993
2 35942   1.8639  82.8021 0003317  23.2879 154.0808  1.00273053 61383
COMSATBW-1              
1 35943U 09054B   26188.15754127  .00000039  00000+0  00000+0 0  9999
2 35943   0.0756 117.2528 0002918 354.9742 292.6514  1.00273088 61504
NSS-12                  
1 36032U 09058A   26188.15632794  .00000086  00000+0  00000+0 0  9990
2 36032   0.0535 279.1271 0004393 153.0901 326.1965  1.00273071 61118
THOR 6                  
1 36033U 09058B   26187.64583219  .00000005  00000+0  00000+0 0  9992
2 36033   0.0203 107.5418 0002132  24.4886  24.2431  1.00271466 61200
INTELSAT 14 (IS-14)     
1 36097U 09064A   26188.19350480  .00000000  00000+0  00000+0 0  9997
2 36097   0.0218  15.2338 0002286 100.4611 194.1442  1.00269109 60808
EUTELSAT 36B            
1 36101U 09065A   26188.15502794  .00000127  00000+0  00000+0 0  9997
2 36101   0.5381  81.2897 0005907  25.3842 284.7431  1.00270917 60901
INTELSAT 15 (IS-15)     
1 36106U 09067A   26188.16187463 -.00000170  00000+0  00000+0 0  9996
2 36106   0.0176  24.3334 0002278  86.4837 317.7435  1.00271377 41425
WGS F3 (USA 211)        
1 36108U 09068A   26187.69158397  .00000079  00000+0  00000+0 0  9997
2 36108   0.3042  85.6857 0000662  67.2311 250.7452  1.00272826 46780
DIRECTV 12              
1 36131U 09075A   26187.91080358 -.00000088  00000+0  00000+0 0  9998
2 36131   0.0412 201.0027 0000151 333.1848 335.8588  1.00269850 46755
BEIDOU-2 G1             
1 36287U 10001A   26187.95897637 -.00000268  00000+0  00000+0 0  9991
2 36287   4.3368  60.3401 0001738 305.4216  44.8608  1.00269357 60364
